[
  {
    "OBJECT_NAME": "NOAA 14",
    "OBJECT_ID": "1994-089A",
    "EPOCH": "2025-06-21T13:05:46.156704",
    "MEAN_MOTION": 14.14587618,
    "ECCENTRICITY": 0.0010329,
    "INCLINATION": 98.4642,
    "RA_OF_ASC_NODE": 154.7473,
    "ARG_OF_PERICENTER": 45.3553,
    "MEAN_ANOMALY": 314.8462,
    "EPHEMERIS_TYPE": 0,
    "CLASSIFICATION_TYPE": "U",
    "NORAD_CAT_ID": 23455,
    "ELEMENT_SET_NO": 999,
    "REV_AT_EPOCH": 57221,
    "BSTAR": 3.9483e-05,
    "MEAN_MOTION_DOT": 3.5e-07,
    "MEAN_MOTION_DDOT": 0
  },
  {
    "OBJECT_NAME": "NOAA 15",
    "OBJECT_ID": "1998-030A",
    "EPOCH": "2025-06-21T19:14:19.677696",
    "MEAN_MOTION": 14.26986082,
    "ECCENTRICITY": 0.00095,
    "INCLINATION": 98.5342,
    "RA_OF_ASC_NODE": 197.6382,
    "ARG_OF_PERICENTER": 329.8455,
    "MEAN_ANOMALY": 30.2178,
    "EPHEMERIS_TYPE": 0,
    "CLASSIFICATION_TYPE": "U",
    "NORAD_CAT_ID": 25338,
    "ELEMENT_SET_NO": 999,
    "REV_AT_EPOCH": 41014,
    "BSTAR": 9.658e-05,
    "MEAN_MOTION_DOT": 1.92e-06,
    "MEAN_MOTION_DDOT": 0
  },
  {
    "OBJECT_NAME": "NOAA 18",
    "OBJECT_ID": "2005-018A",
    "EPOCH": "2025-06-21T19:06:40.737312",
    "MEAN_MOTION": 14.13613897,
    "ECCENTRICITY": 0.0015379,
    "INCLINATION": 98.8424,
    "RA_OF_ASC_NODE": 252.1354,
    "ARG_OF_PERICENTER": 95.1378,
    "MEAN_ANOMALY": 265.155,
    "EPHEMERIS_TYPE": 0,
    "CLASSIFICATION_TYPE": "U",
    "NORAD_CAT_ID": 28654,
    "ELEMENT_SET_NO": 999,
    "REV_AT_EPOCH": 3547,
    "BSTAR": 5.586e-05,
    "MEAN_MOTION_DOT": 6.2e-07,
    "MEAN_MOTION_DDOT": 0
  },
  {
    "OBJECT_NAME": "NOAA 19",
    "OBJECT_ID": "2009-005A",
    "EPOCH": "2025-06-21T19:18:49.234464",
    "MEAN_MOTION": 14.13379832,
    "ECCENTRICITY": 0.0013123,
    "INCLINATION": 98.9968,
    "RA_OF_ASC_NODE": 237.5777,
    "ARG_OF_PERICENTER": 333.3602,
    "MEAN_ANOMALY": 26.6894,
    "EPHEMERIS_TYPE": 0,
    "CLASSIFICATION_TYPE": "U",
    "NORAD_CAT_ID": 33591,
    "ELEMENT_SET_NO": 999,
    "REV_AT_EPOCH": 84383,
    "BSTAR": 0.0001014,
    "MEAN_MOTION_DOT": 1.45e-06,
    "MEAN_MOTION_DDOT": 0
  },
  {
    "OBJECT_NAME": "SUOMI NPP",
    "OBJECT_ID": "2011-061A",
    "EPOCH": "2025-06-21T19:20:44.946528",
    "MEAN_MOTION": 14.19541349,
    "ECCENTRICITY": 3.91e-05,
    "INCLINATION": 98.7581,
    "RA_OF_ASC_NODE": 111.9389,
    "ARG_OF_PERICENTER": 322.9961,
    "MEAN_ANOMALY": 37.1188,
    "EPHEMERIS_TYPE": 0,
    "CLASSIFICATION_TYPE": "U",
    "NORAD_CAT_ID": 37849,
    "ELEMENT_SET_NO": 999,
    "REV_AT_EPOCH": 70730,
    "BSTAR": 4.3388e-05,
    "MEAN_MOTION_DOT": 4.7e-07,
    "MEAN_MOTION_DDOT": 0
  },
  {
    "OBJECT_NAME": "NOAA 20 (JPSS-1)",
    "OBJECT_ID": "2017-073A",
    "EPOCH": "2025-06-21T19:43:10.063200",
    "MEAN_MOTION": 14.19511015,
    "ECCENTRICITY": 3.8e-05,
    "INCLINATION": 98.7419,
    "RA_OF_ASC_NODE": 111.2411,
    "ARG_OF_PERICENTER": 154.49,
    "MEAN_ANOMALY": 205.6295,
    "EPHEMERIS_TYPE": 0,
    "CLASSIFICATION_TYPE": "U",
    "NORAD_CAT_ID": 43013,
    "ELEMENT_SET_NO": 999,
    "REV_AT_EPOCH": 39334,
    "BSTAR": 3.434e-05,
    "MEAN_MOTION_DOT": 2.8e-07,
    "MEAN_MOTION_DDOT": 0
  },
  {
    "OBJECT_NAME": "NOAA 21 (JPSS-2)",
    "OBJECT_ID": "2022-150A",
    "EPOCH": "2025-06-21T13:49:29.524224",
    "MEAN_MOTION": 14.19540257,
    "ECCENTRICITY": 0.0002465,
    "INCLINATION": 98.7275,
    "RA_OF_ASC_NODE": 111.276,
    "ARG_OF_PERICENTER": 117.0307,
    "MEAN_ANOMALY": 243.1121,
    "EPHEMERIS_TYPE": 0,
    "CLASSIFICATION_TYPE": "U",
    "NORAD_CAT_ID": 54234,
    "ELEMENT_SET_NO": 999,
    "REV_AT_EPOCH": 13538,
    "BSTAR": 3.5417e-05,
    "MEAN_MOTION_DOT": 3.1e-07,
    "MEAN_MOTION_DDOT": 0
  }
]